STARLINK-32340          
1 61008U 24158U   26068.39690049 -.00002670  00000+0 -78111-4 0  9995
2 61008  53.1614  67.0145 0001307  89.3267 270.7884 15.30171823 85534
TEVEL2-1                
1 63217U 25052H   26068.64782323  .00020683  00000+0  70600-3 0  9994
2 63217  97.3991 324.7682 0004767 104.8919 255.2849 15.30341923 54855
